ONEWEB-0564             
1 55801U 23029F   24216.56595232  .00000109  00000+0  23673-3 0  9990
2 55801  87.9183  50.2639 0002245  92.4546 267.6845 13.20773476 71045
ONEWEB-0638             
1 55802U 23029G   24216.61655208  .00000789  00000+0  20925-2 0  9997
2 55802  87.8915  65.5329 0002169  68.1998 291.9363 13.14499998 69723
ONEWEB-0639             
1 55803U 23029H   24216.90822184  .00000027  00000+0  35315-4 0  9995
2 55803  87.9115  80.7280 0000951  28.3789 331.7395 13.19723833 69603
ONEWEB-0640             
1 55804U 23029J   24216.85439527 -.00000283  00000+0 -79794-3 0  9999
2 55804  87.8924  65.4816 0002024  58.6940 301.4388 13.14502044 70459
ONEWEB-0641             
1 55805U 23029K   24216.90347647 -.00000018  00000+0 -77101-4 0  9994
2 55805  87.9112  80.7098 0001542  75.8276 284.3028 13.19726023 69615
ONEWEB-0642             
1 55806U 23029L   24216.67129814  .00000138  00000+0  31291-3 0  9993
2 55806  87.9116  80.7806 0000810  56.5298 303.5912 13.19726175 69573
ONEWEB-0643             
1 55807U 23029M   24216.82426854  .00000066  00000+0  14339-3 0  9999
2 55807  87.8926  65.4653 0000879 107.2135 252.9091 13.14504062 70459
ONEWEB-0644             
1 55808U 23029N   24216.66655061  .00000069  00000+0  14030-3 0  9997
2 55808  87.9119  80.7788 0001165  72.0182 288.1077 13.19726329 69577
